STARLINK-37886          
1 69943U 26157A   26198.58335648 -.01057239  00000+0 -58426-2 0  9995
2 69943  53.1600 283.8651 0000859  82.4556 294.5075 15.81624883  2531
STARLINK-37937          
1 69944U 26157B   26198.58335648 -.02063760  00000+0 -10156-1 0  9990
2 69944  53.1601 283.8567 0001108  37.4872 343.6866 15.84608372  2530
STARLINK-37903          
1 69945U 26157C   26198.58335648 -.01882916  00000+0 -10120-1 0  9993
2 69945  53.1601 283.8382 0000920  72.4130 317.4728 15.82476285  2533
STARLINK-37905          
1 69946U 26157D   26198.58335648 -.02015204  00000+0 -10486-1 0  9998
2 69946  53.1596 283.8009 0000693  82.8568 324.9923 15.83377846  2534
STARLINK-37904          
1 69947U 26157E   26198.58335648 -.02034871  00000+0 -10505-1 0  9992
2 69947  53.1599 283.7937 0000768  64.0713 347.2412 15.83572942  2539
STARLINK-37891          
1 69948U 26157F   26198.58335648 -.02044774  00000+0 -10537-1 0  9991
2 69948  53.1599 283.7851 0000736  59.9757 355.5242 15.83628528  2536
STARLINK-37923          
1 69949U 26157G   26198.58335648 -.02153911  00000+0 -10819-1 0  9999
2 69949  53.1597 283.7532 0001172  52.0338  19.0311 15.84336822  2549
STARLINK-37895          
1 69950U 26157H   26198.58335648 -.02165937  00000+0 -10745-1 0  9990
2 69950  53.1594 283.7385 0001198  62.3015  15.4961 15.84613093  2547
STARLINK-37841          
1 69951U 26157J   26198.58335648 -.02158580  00000+0 -10476-1 0  9998
2 69951  53.1595 283.7189 0001280  60.4365  26.8465 15.85049875  2547
STARLINK-37899          
1 69952U 26157K   26198.58335648 -.02164407  00000+0 -10281-1 0  9998
2 69952  53.1595 283.6972 0001252  62.3160  35.2937 15.85497799  2540
STARLINK-37900          
1 69953U 26157L   26198.58335648 -.02142353  00000+0 -10075-1 0  9996
2 69953  53.1594 283.6907 0001327  54.2510  46.5362 15.85662766  2545
STARLINK-37882          
1 69954U 26157M   26198.58335648 -.02135990  00000+0 -98204-2 0  9997
2 69954  53.1593 283.6717 0001175  48.8523  61.0190 15.86113223  2549
STARLINK-37928          
1 69955U 26157N   26198.58335648 -.02154326  00000+0 -99803-2 0  9998
2 69955  53.1594 283.6693 0001237  53.9244  57.2041 15.85989074  2546
STARLINK-37824          
1 69956U 26157P   26198.58335648 -.02146714  00000+0 -98967-2 0  9991
2 69956  53.1595 283.6670 0001303  62.6800  49.5150 15.86073907  2547
STARLINK-37919          
1 69957U 26157Q   26198.58335648 -.02152549  00000+0 -99562-2 0  9997
2 69957  53.1594 283.6645 0001186  49.7645  63.6358 15.86019060  2548
STARLINK-37964          
1 69958U 26157R   26198.58335648 -.02238102  00000+0 -10231-1 0  9993
2 69958  53.1594 283.6528 0001184  52.9862  65.9160 15.86400366  2543
STARLINK-37907          
1 69959U 26157S   26198.58335648 -.02127399  00000+0 -94580-2 0  9999
2 69959  53.1594 283.6367 0001278  52.1944  74.4908 15.86774086  2540
STARLINK-37901          
1 69960U 26157T   26198.58335648 -.02183413  00000+0 -96324-2 0  9998
2 69960  53.1593 283.6250 0001175  58.2862  74.1522 15.87022148  2549
STARLINK-37910          
1 69961U 26157U   26198.58335648 -.02133934  00000+0 -92468-2 0  9997
2 69961  53.1593 283.6093 0001185  57.8207  82.1459 15.87299435  2547
STARLINK-37925          
1 69962U 26157V   26198.58335648 -.02132911  00000+0 -92282-2 0  9996
2 69962  53.1593 283.6055 0001228  53.9206  87.8924 15.87327844  2545
STARLINK-37931          
1 69963U 26157W   26198.58335648 -.02145583  00000+0 -93013-2 0  9999
2 69963  53.1592 283.5983 0001230  61.4246  83.8597 15.87309083  2542
STARLINK-37914          
1 69964U 26157X   26198.58335648 -.02212256  00000+0 -93735-2 0  9993
2 69964  53.1593 283.5693 0001489  60.9182  98.2354 15.87868978  2545
STARLINK-37840          
1 69965U 26157Y   26198.58335648 -.02166255  00000+0 -85331-2 0  9994
2 69965  53.1591 283.5508 0001143  72.8794  95.1905 15.89234798  2544
STARLINK-37894          
1 69966U 26157Z   26198.58335648 -.02164296  00000+0 -89903-2 0  9997
2 69966  53.1590 283.5518 0001200  70.0356  97.5194 15.88187709  2547
STARLINK-37875          
1 69967U 26157AA  26198.58335648 -.02158676  00000+0 -87832-2 0  9992
2 69967  53.1588 283.5353 0001241  65.4931 109.9400 15.88586374  2543
STARLINK-36218          
1 69968U 26157AB  26198.58335648 -.02128481  00000+0 -83589-2 0  9999
2 69968  53.1586 283.5169 0001191  66.3436 117.8704 15.89234137  2195
STARLINK-37921          
1 69969U 26157AC  26198.58335648 -.02138636  00000+0 -81664-2 0  9995
2 69969  53.1585 283.4868 0001208  73.5485 125.1644 15.89796253  2549
STARLINK-37896          
1 69970U 26157AD  26198.58335648 -.02138314  00000+0 -81774-2 0  9992
2 69970  53.1585 283.4838 0001269  77.4911 122.5840 15.89765825  2542
STARLINK-37922          
1 69971U 26157AE  26198.58335648 -.02139794  00000+0 -81689-2 0  9991
2 69971  53.1585 283.4816 0001251  71.4010 129.6903 15.89802034  2546
CHUANG XIN 26 (CX-26)   
1 69972U 26158A   26194.51442212 -.00000212  00000+0 -21871-4 0  9997
2 69972  49.9860 287.5119 0004887 294.2352  65.8050 14.25122238   462
