OBJECT_NAME,OBJECT_ID,EPOCH,MEAN_MOTION,ECCENTRICITY,INCLINATION,RA_OF_ASC_NODE,ARG_OF_PERICENTER,MEAN_ANOMALY,EPHEMERIS_TYPE,CLASSIFICATION_TYPE,NORAD_CAT_ID,ELEMENT_SET_NO,REV_AT_EPOCH,BSTAR,MEAN_MOTION_DOT,MEAN_MOTION_DDOT
STARLINK-37886,2026-157A,2026-07-17T14:00:01.999872,15.81624883,.00008596,53.1600,283.8651,82.4556,294.5075,0,U,69943,999,253,-.58425696E-2,-.1057239E-1,0
STARLINK-37937,2026-157B,2026-07-17T14:00:01.999872,15.84608372,.00011089,53.1601,283.8567,37.4872,343.6866,0,U,69944,999,253,-.10155681E-1,-.206376E-1,0
STARLINK-37903,2026-157C,2026-07-17T14:00:01.999872,15.82476285,.00009201,53.1601,283.8382,72.4130,317.4728,0,U,69945,999,253,-.10119964E-1,-.1882916E-1,0
STARLINK-37905,2026-157D,2026-07-17T14:00:01.999872,15.83377846,.00006938,53.1596,283.8009,82.8568,324.9923,0,U,69946,999,253,-.10485617E-1,-.2015204E-1,0
STARLINK-37904,2026-157E,2026-07-17T14:00:01.999872,15.83572942,.00007688,53.1599,283.7937,64.0713,347.2412,0,U,69947,999,253,-.10505388E-1,-.2034871E-1,0
STARLINK-37891,2026-157F,2026-07-17T14:00:01.999872,15.83628528,.00007366,53.1599,283.7851,59.9757,355.5242,0,U,69948,999,253,-.10536986E-1,-.2044774E-1,0
STARLINK-37923,2026-157G,2026-07-17T14:00:01.999872,15.84336822,.00011728,53.1597,283.7532,52.0338,19.0311,0,U,69949,999,254,-.1081947E-1,-.2153911E-1,0
STARLINK-37895,2026-157H,2026-07-17T14:00:01.999872,15.84613093,.00011982,53.1594,283.7385,62.3015,15.4961,0,U,69950,999,254,-.10745303E-1,-.2165937E-1,0
STARLINK-37841,2026-157J,2026-07-17T14:00:01.999872,15.85049875,.00012805,53.1595,283.7189,60.4365,26.8465,0,U,69951,999,254,-.10475898E-1,-.215858E-1,0
STARLINK-37899,2026-157K,2026-07-17T14:00:01.999872,15.85497799,.00012527,53.1595,283.6972,62.3160,35.2937,0,U,69952,999,254,-.10281167E-1,-.2164407E-1,0
STARLINK-37900,2026-157L,2026-07-17T14:00:01.999872,15.85662766,.00013274,53.1594,283.6907,54.2510,46.5362,0,U,69953,999,254,-.10075241E-1,-.2142353E-1,0
STARLINK-37882,2026-157M,2026-07-17T14:00:01.999872,15.86113223,.00011751,53.1593,283.6717,48.8523,61.0190,0,U,69954,999,254,-.98204356E-2,-.213599E-1,0
STARLINK-37928,2026-157N,2026-07-17T14:00:01.999872,15.85989074,.00012377,53.1594,283.6693,53.9244,57.2041,0,U,69955,999,254,-.99802925E-2,-.2154326E-1,0
STARLINK-37824,2026-157P,2026-07-17T14:00:01.999872,15.86073907,.0001303,53.1595,283.6670,62.6800,49.5150,0,U,69956,999,254,-.989675E-2,-.2146714E-1,0
STARLINK-37919,2026-157Q,2026-07-17T14:00:01.999872,15.86019060,.00011868,53.1594,283.6645,49.7645,63.6358,0,U,69957,999,254,-.99561968E-2,-.2152549E-1,0
STARLINK-37964,2026-157R,2026-07-17T14:00:01.999872,15.86400366,.00011842,53.1594,283.6528,52.9862,65.9160,0,U,69958,999,254,-.10231032E-1,-.2238102E-1,0
STARLINK-37907,2026-157S,2026-07-17T14:00:01.999872,15.86774086,.00012786,53.1594,283.6367,52.1944,74.4908,0,U,69959,999,254,-.94579937E-2,-.2127399E-1,0
STARLINK-37901,2026-157T,2026-07-17T14:00:01.999872,15.87022148,.00011754,53.1593,283.6250,58.2862,74.1522,0,U,69960,999,254,-.96324499E-2,-.2183413E-1,0
STARLINK-37910,2026-157U,2026-07-17T14:00:01.999872,15.87299435,.00011858,53.1593,283.6093,57.8207,82.1459,0,U,69961,999,254,-.9246843E-2,-.2133934E-1,0
STARLINK-37925,2026-157V,2026-07-17T14:00:01.999872,15.87327844,.00012286,53.1593,283.6055,53.9206,87.8924,0,U,69962,999,254,-.92282191E-2,-.2132911E-1,0
STARLINK-37931,2026-157W,2026-07-17T14:00:01.999872,15.87309083,.00012306,53.1592,283.5983,61.4246,83.8597,0,U,69963,999,254,-.93013346E-2,-.2145583E-1,0
STARLINK-37914,2026-157X,2026-07-17T14:00:01.999872,15.87868978,.0001489,53.1593,283.5693,60.9182,98.2354,0,U,69964,999,254,-.93734872E-2,-.2212256E-1,0
STARLINK-37840,2026-157Y,2026-07-17T14:00:01.999872,15.89234798,.00011436,53.1591,283.5508,72.8794,95.1905,0,U,69965,999,254,-.85331154E-2,-.2166255E-1,0
STARLINK-37894,2026-157Z,2026-07-17T14:00:01.999872,15.88187709,.00012005,53.1590,283.5518,70.0356,97.5194,0,U,69966,999,254,-.89902767E-2,-.2164296E-1,0
STARLINK-37875,2026-157AA,2026-07-17T14:00:01.999872,15.88586374,.00012418,53.1588,283.5353,65.4931,109.9400,0,U,69967,999,254,-.87831792E-2,-.2158676E-1,0
STARLINK-36218,2026-157AB,2026-07-17T14:00:01.999872,15.89234137,.00011913,53.1586,283.5169,66.3436,117.8704,0,U,69968,999,219,-.83588954E-2,-.2128481E-1,0
STARLINK-37921,2026-157AC,2026-07-17T14:00:01.999872,15.89796253,.00012085,53.1585,283.4868,73.5485,125.1644,0,U,69969,999,254,-.81663941E-2,-.2138636E-1,0
STARLINK-37896,2026-157AD,2026-07-17T14:00:01.999872,15.89765825,.0001269,53.1585,283.4838,77.4911,122.5840,0,U,69970,999,254,-.81773906E-2,-.2138314E-1,0
STARLINK-37922,2026-157AE,2026-07-17T14:00:01.999872,15.89802034,.00012512,53.1585,283.4816,71.4010,129.6903,0,U,69971,999,254,-.81688784E-2,-.2139794E-1,0
CHUANG XIN 26 (CX-26),2026-158A,2026-07-13T12:20:46.071168,14.25122238,.0004887,49.9860,287.5119,294.2352,65.8050,0,U,69972,999,46,-.21871415E-4,-.212E-5,0
